{
  "type": "FeatureCollection",
  "features": [
    {
      "type": "Feature",
      "properties": {
        "norad_id": 30315,
        "name": "FENGYUN 1C DEB",
        "group": "fengyun-1c-debris",
        "lat": 3.8819041963484087,
        "lon": -7.771115373399881,
        "alt_km": 805.5422842852049,
        "timestamp": "2025-12-09T04:51:47.768722+00:00",
        "meta_object_name": "FENGYUN 1C DEB",
        "meta_object_id": "1999-025AAC",
        "meta_epoch": "2025-12-08T19:31:40.529856",
        "meta_mean_motion": 14.19056693,
        "meta_eccentricity": 0.0035456,
        "meta_inclination": 98.6019,
        "meta_ra_of_asc_node": 352.4399,
        "meta_arg_of_pericenter": 11.6338,
        "meta_mean_anomaly": 166.469,
        "meta_ephemeris_type": 0,
        "meta_classification_type": "U",
        "meta_norad_cat_id": 30315,
        "meta_element_set_no": 999,
        "meta_rev_at_epoch": 97651,
        "meta_bstar": 0.00058731,
        "meta_mean_motion_dot": 1.192e-05,
        "meta_mean_motion_ddot": 0,
        "tle_line1": "1 30315U 99025AAC 25342.81366354  .00001192  00000+0  58731-3 0  9998",
        "tle_line2": "2 30315  98.6019 352.4399 0035456  11.6338 166.4690 14.19056693976511"
      },
      "geometry": {
        "type": "Point",
        "coordinates": [
          -7.771115373399881,
          3.8819041963484087
        ]
      }
    },
    {
      "type": "Feature",
      "properties": {
        "norad_id": 30316,
        "name": "FENGYUN 1C DEB",
        "group": "fengyun-1c-debris",
        "lat": -52.41427050881075,
        "lon": 96.89279558688698,
        "alt_km": 719.3119367739127,
        "timestamp": "2025-12-09T04:51:47.768733+00:00",
        "meta_object_name": "FENGYUN 1C DEB",
        "meta_object_id": "1999-025AAD",
        "meta_epoch": "2025-12-08T17:33:42.069888",
        "meta_mean_motion": 14.55950313,
        "meta_eccentricity": 0.0035879,
        "meta_inclination": 98.6482,
        "meta_ra_of_asc_node": 85.0006,
        "meta_arg_of_pericenter": 52.3838,
        "meta_mean_anomaly": 308.0606,
        "meta_ephemeris_type": 0,
        "meta_classification_type": "U",
        "meta_norad_cat_id": 30316,
        "meta_element_set_no": 999,
        "meta_rev_at_epoch": 98278,
        "meta_bstar": 0.0031053,
        "meta_mean_motion_dot": 0.00013743,
        "meta_mean_motion_ddot": 0,
        "tle_line1": "1 30316U 99025AAD 25342.73173692  .00013743  00000+0  31053-2 0  9993",
        "tle_line2": "2 30316  98.6482  85.0006 0035879  52.3838 308.0606 14.55950313982785"
      },
      "geometry": {
        "type": "Point",
        "coordinates": [
          96.89279558688698,
          -52.41427050881075
        ]
      }
    },
    {
      "type": "Feature",
      "properties": {
        "norad_id": 30317,
        "name": "FENGYUN 1C DEB",
        "group": "fengyun-1c-debris",
        "lat": 29.659860443334164,
        "lon": 168.8287364219301,
        "alt_km": 881.173976847087,
        "timestamp": "2025-12-09T04:51:47.768743+00:00",
        "meta_object_name": "FENGYUN 1C DEB",
        "meta_object_id": "1999-025AAE",
        "meta_epoch": "2025-12-08T19:37:02.484768",
        "meta_mean_motion": 14.06944212,
        "meta_eccentricity": 0.0024165,
        "meta_inclination": 98.7863,
        "meta_ra_of_asc_node": 343.4017,
        "meta_arg_of_pericenter": 288.3502,
        "meta_mean_anomaly": 71.5039,
        "meta_ephemeris_type": 0,
        "meta_classification_type": "U",
        "meta_norad_cat_id": 30317,
        "meta_element_set_no": 999,
        "meta_rev_at_epoch": 96958,
        "meta_bstar": 0.00024377,
        "meta_mean_motion_dot": 3.65e-06,
        "meta_mean_motion_ddot": 0,
        "tle_line1": "1 30317U 99025AAE 25342.81738987  .00000365  00000+0  24377-3 0  9995",
        "tle_line2": "2 30317  98.7863 343.4017 0024165 288.3502  71.5039 14.06944212969580"
      },
      "geometry": {
        "type": "Point",
        "coordinates": [
          168.8287364219301,
          29.659860443334164
        ]
      }
    },
    {
      "type": "Feature",
      "properties": {
        "norad_id": 30320,
        "name": "FENGYUN 1C DEB",
        "group": "fengyun-1c-debris",
        "lat": -23.64335722187355,
        "lon": 46.55786000846044,
        "alt_km": 851.2548517202531,
        "timestamp": "2025-12-09T04:51:47.768754+00:00",
        "meta_object_name": "FENGYUN 1C DEB",
        "meta_object_id": "1999-025AAH",
        "meta_epoch": "2025-12-08T15:58:48.569952",
        "meta_mean_motion": 13.98553473,
        "meta_eccentricity": 0.0085281,
        "meta_inclination": 99.1884,
        "meta_ra_of_asc_node": 41.9568,
        "meta_arg_of_pericenter": 305.8794,
        "meta_mean_anomaly": 208.563,
        "meta_ephemeris_type": 0,
        "meta_classification_type": "U",
        "meta_norad_cat_id": 30320,
        "meta_element_set_no": 999,
        "meta_rev_at_epoch": 96350,
        "meta_bstar": 0.00018725,
        "meta_mean_motion_dot": 2.31e-06,
        "meta_mean_motion_ddot": 0,
        "tle_line1": "1 30320U 99025AAH 25342.66583993  .00000231  00000+0  18725-3 0  9999",
        "tle_line2": "2 30320  99.1884  41.9568 0085281 305.8794 208.5630 13.98553473963507"
      },
      "geometry": {
        "type": "Point",
        "coordinates": [
          46.55786000846044,
          -23.64335722187355
        ]
      }
    },
    {
      "type": "Feature",
      "properties": {
        "norad_id": 30321,
        "name": "FENGYUN 1C DEB",
        "group": "fengyun-1c-debris",
        "lat": 21.9206603135957,
        "lon": 165.8495774209479,
        "alt_km": 835.7383490248512,
        "timestamp": "2025-12-09T04:51:47.768764+00:00",
        "meta_object_name": "FENGYUN 1C DEB",
        "meta_object_id": "1999-025AAJ",
        "meta_epoch": "2025-12-08T18:45:57.335904",
        "meta_mean_motion": 14.16633807,
        "meta_eccentricity": 0.0059865,
        "meta_inclination": 98.6559,
        "meta_ra_of_asc_node": 341.9259,
        "meta_arg_of_pericenter": 248.3137,
        "meta_mean_anomaly": 285.6516,
        "meta_ephemeris_type": 0,
        "meta_classification_type": "U",
        "meta_norad_cat_id": 30321,
        "meta_element_set_no": 999,
        "meta_rev_at_epoch": 97487,
        "meta_bstar": 0.00058692,
        "meta_mean_motion_dot": 1.149e-05,
        "meta_mean_motion_ddot": 0,
        "tle_line1": "1 30321U 99025AAJ 25342.78191361  .00001149  00000+0  58692-3 0  9993",
        "tle_line2": "2 30321  98.6559 341.9259 0059865 248.3137 285.6516 14.16633807974874"
      },
      "geometry": {
        "type": "Point",
        "coordinates": [
          165.8495774209479,
          21.9206603135957
        ]
      }
    },
    {
      "type": "Feature",
      "properties": {
        "norad_id": 30322,
        "name": "FENGYUN 1C DEB",
        "group": "fengyun-1c-debris",
        "lat": -54.16971703539512,
        "lon": -147.04830861781684,
        "alt_km": 810.6901095616086,
        "timestamp": "2025-12-09T04:51:47.768774+00:00",
        "meta_object_name": "FENGYUN 1C DEB",
        "meta_object_id": "1999-025AAK",
        "meta_epoch": "2025-12-08T13:45:06.126912",
        "meta_mean_motion": 14.06069537,
        "meta_eccentricity": 0.0126834,
        "meta_inclination": 98.3982,
        "meta_ra_of_asc_node": 200.5613,
        "meta_arg_of_pericenter": 265.0619,
        "meta_mean_anomaly": 93.606,
        "meta_ephemeris_type": 0,
        "meta_classification_type": "U",
        "meta_norad_cat_id": 30322,
        "meta_element_set_no": 999,
        "meta_rev_at_epoch": 96141,
        "meta_bstar": 0.0022342,
        "meta_mean_motion_dot": 3.904e-05,
        "meta_mean_motion_ddot": 0,
        "tle_line1": "1 30322U 99025AAK 25342.57298758  .00003904  00000+0  22342-2 0  9992",
        "tle_line2": "2 30322  98.3982 200.5613 0126834 265.0619  93.6060 14.06069537961417"
      },
      "geometry": {
        "type": "Point",
        "coordinates": [
          -147.04830861781684,
          -54.16971703539512
        ]
      }
    },
    {
      "type": "Feature",
      "properties": {
        "norad_id": 30325,
        "name": "FENGYUN 1C DEB",
        "group": "fengyun-1c-debris",
        "lat": -63.141195051819246,
        "lon": 20.33182026335296,
        "alt_km": 860.2228489843965,
        "timestamp": "2025-12-09T04:51:47.768784+00:00",
        "meta_object_name": "FENGYUN 1C DEB",
        "meta_object_id": "1999-025AAL",
        "meta_epoch": "2025-12-08T12:07:36.804576",
        "meta_mean_motion": 14.09101986,
        "meta_eccentricity": 0.00151848,
        "meta_inclination": 98.7333,
        "meta_ra_of_asc_node": 1.9865,
        "meta_arg_of_pericenter": 266.0317,
        "meta_mean_anomaly": 93.9118,
        "meta_ephemeris_type": 0,
        "meta_classification_type": "U",
        "meta_norad_cat_id": 30325,
        "meta_element_set_no": 999,
        "meta_rev_at_epoch": 96956,
        "meta_bstar": 0.00016735386,
        "meta_mean_motion_dot": 2.48e-06,
        "meta_mean_motion_ddot": 0,
        "tle_line1": "1 30325U 99025AAL 25342.50528709  .00000248  00000+0  16735-3 0  9998",
        "tle_line2": "2 30325  98.7333   1.9865 0015184 266.0317  93.9118 14.09101986969566"
      },
      "geometry": {
        "type": "Point",
        "coordinates": [
          20.33182026335296,
          -63.141195051819246
        ]
      }
    }
  ]
}